[{"OBJECT_NAME":"COSMOS 2556","OBJECT_ID":"2022-054A","EPOCH":"2026-03-10T00:10:17.786784","MEAN_MOTION":15.25603379,"ECCENTRICITY":0.00026445,"INCLINATION":97.619,"RA_OF_ASC_NODE":16.747,"ARG_OF_PERICENTER":87.0138,"MEAN_ANOMALY":273.1402,"EPHEMERIS_TYPE":0,"CLASSIFICATION_TYPE":"U","NORAD_CAT_ID":52713,"ELEMENT_SET_NO":999,"REV_AT_EPOCH":21161,"BSTAR":0.00015936962,"MEAN_MOTION_DOT":3.973e-5,"MEAN_MOTION_DDOT":0},{"OBJECT_NAME":"DMSP 5D-2 F14 DEB","OBJECT_ID":"1997-012E","EPOCH":"2026-03-09T23:05:42.500544","MEAN_MOTION":15.25086034,"ECCENTRICITY":0.00083151,"INCLINATION":98.7933,"RA_OF_ASC_NODE":208.6058,"ARG_OF_PERICENTER":272.9178,"MEAN_ANOMALY":87.1104,"EPHEMERIS_TYPE":0,"CLASSIFICATION_TYPE":"U","NORAD_CAT_ID":24778,"ELEMENT_SET_NO":999,"REV_AT_EPOCH":51788,"BSTAR":0.0054670036,"MEAN_MOTION_DOT":0.00139299,"MEAN_MOTION_DDOT":0}]
